STARLINK-35861          
1 66355U 25254H   26178.03399806  .00029814  00000+0  10151-2 0  9998
2 66355  53.1592  84.7848 0001118 101.9466 258.1660 15.30189234 35719
STARLINK-35851          
1 66356U 25254J   26178.03083412  .00027604  00000+0  94129-3 0  9995
2 66356  53.1595  84.7657 0000957  65.6654 294.4447 15.30178035 35719
STARLINK-35817          
1 66357U 25254K   26178.02133347  .00017621  00000+0  60576-3 0  9995
2 66357  53.1586  84.7032 0001088  92.1872 267.9253 15.30194019 35710
STARLINK-35807          
1 66358U 25254L   26178.03617831  .00035536  00000+0  11518-2 0  9998
2 66358  53.1580  84.0883 0001084  85.0438 275.0687 15.31689876 35720
STARLINK-35805          
1 66359U 25254M   26178.00350995  .00025958  00000+0  84553-3 0  9998
2 66359  53.1588  83.8850 0001472  56.4659 303.6483 15.31693167 36853
STARLINK-35823          
1 66360U 25254N   26177.98545010  .00027611  00000+0  94103-3 0  9990
2 66360  53.1589  84.4767 0001168  88.3176 271.7959 15.30195736 35715
STARLINK-35813          
1 66361U 25254P   26178.00817307  .00027832  00000+0  90533-3 0  9994
2 66361  53.1593  83.9120 0001307  92.1318 267.9833 15.31699230 35722
STARLINK-35822          
1 66362U 25254Q   26178.03610911  .00027960  00000+0  95297-3 0  9994
2 66362  53.1589  84.7972 0001237 106.6570 253.4567 15.30186975 35714
STARLINK-35806          
1 66363U 25254R   26177.97818098  .00017375  00000+0  59776-3 0  9994
2 66363  53.1594  85.1463 0001403  75.2224 284.8932 15.30178928 35705
STARLINK-35797          
1 66364U 25254S   26178.03294319  .00026936  00000+0  91867-3 0  9997
2 66364  53.1586  84.7765 0001146 110.5231 249.5892 15.30186185 35710
STARLINK-35827          
1 66365U 25254T   26177.98026315  .00030359  00000+0  98631-3 0  9990
2 66365  53.1591  84.4498 0001111 110.0974 250.0147 15.31693011 35710
STARLINK-35845          
1 66366U 25254U   26178.05018247  .00025173  00000+0  82039-3 0  9998
2 66366  53.1597  84.1763 0001110  97.6168 262.4960 15.31692701 35729
STARLINK-35846          
1 66367U 25254V   26178.04657154  .00030212  00000+0  10284-2 0  9996
2 66367  53.1586  84.1460 0001251 122.8360 237.2761 15.30187328 35725
STARLINK-34861          
1 66368U 25254W   26178.00181091  .00029441  00000+0  10024-2 0  9999
2 66368  53.1587  82.4071 0001070  86.4691 273.6432 15.30193270 35741
STARLINK-35795          
1 66369U 25254X   26178.20408088  .00032946  00000+0  11197-2 0  9996
2 66369  53.1585  81.5379 0001178  89.2693 270.8443 15.30195755 35777
STARLINK-35824          
1 66370U 25254Y   26178.00497223  .00021563  00000+0  73803-3 0  9991
2 66370  53.1592  82.4284 0001272  80.6406 279.4739 15.30200049 35747
STARLINK-35804          
1 66371U 25254Z   26177.99863830  .00026717  00000+0  91144-3 0  9994
2 66371  53.1593  82.3881 0001203  97.9665 262.1472 15.30181959 35744
STARLINK-35821          
1 66372U 25254AA  26178.19142110  .00028624  00000+0  97520-3 0  9992
2 66372  53.1593  81.4581 0001397  81.6791 278.4368 15.30187914 35770
STARLINK-35809          
1 66373U 25254AB  26177.99230911  .00022125  00000+0  75739-3 0  9995
2 66373  53.1593  82.3472 0001393  77.2843 282.8313 15.30179572 35742
STARLINK-35831          
1 66374U 25254AC  26178.00959220  .00037763  00000+0  11238-2 0  9997
2 66374  53.1587  81.0342 0000995  97.8588 262.2527 15.34383807 35762
STARLINK-35826          
1 66375U 25254AD  26178.01224227  .00030821  00000+0  10491-2 0  9999
2 66375  53.1583  81.7577 0000967  70.3737 289.7368 15.30180306 35758
STARLINK-35139          
1 66380U 25257A   26178.17080321  .00041525  00000+0  12335-2 0  9992
2 66380  53.1589  66.5091 0001034  98.5152 261.5968 15.34395197 36464
STARLINK-35158          
1 66381U 25257B   26178.21336269  .00039766  00000+0  11823-2 0  9998
2 66381  53.1611  68.1915 0001100  81.8823 278.2305 15.34388781 36504
STARLINK-35639          
1 66382U 25257C   26178.16670139  .00067558  00000+0  20497-2 0  9997
2 66382  53.1595  68.7664 0000986  53.2609 227.3892 15.33508025  5651
STARLINK-35690          
1 66383U 25257D   26177.96908566  .00026786  00000+0  80175-3 0  9991
2 66383  53.1586  67.3801 0001540  52.6716 307.4427 15.34372658 36491
STARLINK-35662          
1 66384U 25257E   26178.00748929  .00031928  00000+0  10854-2 0  9993
2 66384  53.1591  69.0343 0001554 110.0508 250.0660 15.30201848 36479
STARLINK-35659          
1 66385U 25257F   26177.97329016  .00019347  00000+0  58250-3 0  9995
2 66385  53.1587  67.4086 0001061 112.2694 247.8421 15.34386474 36498
STARLINK-35651          
1 66386U 25257G   26178.00535933  .00067463  00000+0  22659-2 0  9993
2 66386  53.1579  69.0207 0001125  98.5980 261.5149 15.30248410 36479
STARLINK-35661          
1 66387U 25257H   26177.96275769  .00020231  00000+0  60838-3 0  9990
2 66387  53.1590  67.3416 0001308  59.2390 300.8742 15.34395813 36490
STARLINK-35647          
1 66388U 25257J   26178.00220674  .00038697  00000+0  13125-2 0  9993
2 66388  53.1596  69.0007 0001043  78.4956 281.6162 15.30184190 36468
