OBJECT_NAME,OBJECT_ID,EPOCH,MEAN_MOTION,ECCENTRICITY,INCLINATION,RA_OF_ASC_NODE,ARG_OF_PERICENTER,MEAN_ANOMALY,EPHEMERIS_TYPE,CLASSIFICATION_TYPE,NORAD_CAT_ID,ELEMENT_SET_NO,REV_AT_EPOCH,BSTAR,MEAN_MOTION_DOT,MEAN_MOTION_DDOT
STARLINK-35861,2025-254H,2026-06-27T00:48:57.432384,15.30189234,.0001118,53.1592,84.7848,101.9466,258.1660,0,U,66355,999,3571,.10151E-2,.29814E-3,0
STARLINK-35851,2025-254J,2026-06-27T00:44:24.067968,15.30178035,.0000957,53.1595,84.7657,65.6654,294.4447,0,U,66356,999,3571,.94129E-3,.27604E-3,0
STARLINK-35817,2025-254K,2026-06-27T00:30:43.211808,15.30194019,.0001088,53.1586,84.7032,92.1872,267.9253,0,U,66357,999,3571,.60576E-3,.17621E-3,0
STARLINK-35807,2025-254L,2026-06-27T00:52:05.805984,15.31689876,.0001084,53.1580,84.0883,85.0438,275.0687,0,U,66358,999,3572,.11518E-2,.35536E-3,0
STARLINK-35805,2025-254M,2026-06-27T00:05:03.259680,15.31693167,.0001472,53.1588,83.8850,56.4659,303.6483,0,U,66359,999,3685,.84553E-3,.25958E-3,0
STARLINK-35823,2025-254N,2026-06-26T23:39:02.888640,15.30195736,.0001168,53.1589,84.4767,88.3176,271.7959,0,U,66360,999,3571,.94103E-3,.27611E-3,0
STARLINK-35813,2025-254P,2026-06-27T00:11:46.153248,15.31699230,.0001307,53.1593,83.9120,92.1318,267.9833,0,U,66361,999,3572,.90533E-3,.27832E-3,0
STARLINK-35822,2025-254Q,2026-06-27T00:51:59.827104,15.30186975,.0001237,53.1589,84.7972,106.6570,253.4567,0,U,66362,999,3571,.95297E-3,.2796E-3,0
STARLINK-35806,2025-254R,2026-06-26T23:28:34.836672,15.30178928,.0001403,53.1594,85.1463,75.2224,284.8932,0,U,66363,999,3570,.59776E-3,.17375E-3,0
STARLINK-35797,2025-254S,2026-06-27T00:47:26.291616,15.30186185,.0001146,53.1586,84.7765,110.5231,249.5892,0,U,66364,999,3571,.91867E-3,.26936E-3,0
STARLINK-35827,2025-254T,2026-06-26T23:31:34.736160,15.31693011,.0001111,53.1591,84.4498,110.0974,250.0147,0,U,66365,999,3571,.98631E-3,.30359E-3,0
STARLINK-35845,2025-254U,2026-06-27T01:12:15.765408,15.31692701,.000111,53.1597,84.1763,97.6168,262.4960,0,U,66366,999,3572,.82039E-3,.25173E-3,0
STARLINK-35846,2025-254V,2026-06-27T01:07:03.781056,15.30187328,.0001251,53.1586,84.1460,122.8360,237.2761,0,U,66367,999,3572,.10284E-2,.30212E-3,0
STARLINK-34861,2025-254W,2026-06-27T00:02:36.462624,15.30193270,.000107,53.1587,82.4071,86.4691,273.6432,0,U,66368,999,3574,.10024E-2,.29441E-3,0
STARLINK-35795,2025-254X,2026-06-27T04:53:52.588032,15.30195755,.0001178,53.1585,81.5379,89.2693,270.8443,0,U,66369,999,3577,.11197E-2,.32946E-3,0
STARLINK-35824,2025-254Y,2026-06-27T00:07:09.600672,15.30200049,.0001272,53.1592,82.4284,80.6406,279.4739,0,U,66370,999,3574,.73803E-3,.21563E-3,0
STARLINK-35804,2025-254Z,2026-06-26T23:58:02.349120,15.30181959,.0001203,53.1593,82.3881,97.9665,262.1472,0,U,66371,999,3574,.91144E-3,.26717E-3,0
STARLINK-35821,2025-254AA,2026-06-27T04:35:38.783040,15.30187914,.0001397,53.1593,81.4581,81.6791,278.4368,0,U,66372,999,3577,.9752E-3,.28624E-3,0
STARLINK-35809,2025-254AB,2026-06-26T23:48:55.507104,15.30179572,.0001393,53.1593,82.3472,77.2843,282.8313,0,U,66373,999,3574,.75739E-3,.22125E-3,0
STARLINK-35831,2025-254AC,2026-06-27T00:13:48.766080,15.34383807,.0000995,53.1587,81.0342,97.8588,262.2527,0,U,66374,999,3576,.11238E-2,.37763E-3,0
STARLINK-35826,2025-254AD,2026-06-27T00:17:37.732128,15.30180306,.0000967,53.1583,81.7577,70.3737,289.7368,0,U,66375,999,3575,.10491E-2,.30821E-3,0
STARLINK-35139,2025-257A,2026-06-27T04:05:57.397344,15.34395197,.0001034,53.1589,66.5091,98.5152,261.5968,0,U,66380,999,3646,.12335E-2,.41525E-3,0
STARLINK-35158,2025-257B,2026-06-27T05:07:14.536416,15.34388781,.00011,53.1611,68.1915,81.8823,278.2305,0,U,66381,999,3650,.11823E-2,.39766E-3,0
STARLINK-35639,2025-257C,2026-06-27T04:00:03.000096,15.33508025,.0000986,53.1595,68.7664,53.2609,227.3892,0,U,66382,999,565,.20497E-2,.67558E-3,0
STARLINK-35690,2025-257D,2026-06-26T23:15:29.001024,15.34372658,.000154,53.1586,67.3801,52.6716,307.4427,0,U,66383,999,3649,.80175E-3,.26786E-3,0
STARLINK-35662,2025-257E,2026-06-27T00:10:47.074656,15.30201848,.0001554,53.1591,69.0343,110.0508,250.0660,0,U,66384,999,3647,.10854E-2,.31928E-3,0
STARLINK-35659,2025-257F,2026-06-26T23:21:32.269824,15.34386474,.0001061,53.1587,67.4086,112.2694,247.8421,0,U,66385,999,3649,.5825E-3,.19347E-3,0
STARLINK-35651,2025-257G,2026-06-27T00:07:43.046112,15.30248410,.0001125,53.1579,69.0207,98.5980,261.5149,0,U,66386,999,3647,.22659E-2,.67463E-3,0
STARLINK-35661,2025-257H,2026-06-26T23:06:22.264416,15.34395813,.0001308,53.1590,67.3416,59.2390,300.8742,0,U,66387,999,3649,.60838E-3,.20231E-3,0
STARLINK-35647,2025-257J,2026-06-27T00:03:10.662336,15.30184190,.0001043,53.1596,69.0007,78.4956,281.6162,0,U,66388,999,3646,.13125E-2,.38697E-3,0
